{
  "type": "FeatureCollection",
  "features": [
    {
      "type": "Feature",
      "properties": {
        "norad_id": 55973,
        "name": "TIANMU-1 03",
        "group": "weather",
        "lat": 16.60849216988971,
        "lon": 141.01609484527637,
        "alt_km": 443.3366798725665,
        "timestamp": "2025-12-06T18:50:09.814302+00:00",
        "meta_object_name": "TIANMU-1 03",
        "meta_object_id": "2023-039A",
        "meta_epoch": "2025-12-06T06:17:35.664576",
        "meta_mean_motion": 15.40641804,
        "meta_eccentricity": 0.00045416,
        "meta_inclination": 97.5107,
        "meta_ra_of_asc_node": 142.7346,
        "meta_arg_of_pericenter": 79.5135,
        "meta_mean_anomaly": 280.6622,
        "meta_ephemeris_type": 0,
        "meta_classification_type": "U",
        "meta_norad_cat_id": 55973,
        "meta_element_set_no": 999,
        "meta_rev_at_epoch": 15106,
        "meta_bstar": 0.00059776391,
        "meta_mean_motion_dot": 0.00024326,
        "meta_mean_motion_ddot": 0,
        "tle_line1": "1 55973U 23039A   25340.26221834  .00024326  00000+0  59776-3 0  9991",
        "tle_line2": "2 55973  97.5107 142.7346 0004541  79.5135 280.6622 15.40641804151063"
      },
      "geometry": {
        "type": "Point",
        "coordinates": [
          141.01609484527637,
          16.60849216988971
        ]
      }
    },
    {
      "type": "Feature",
      "properties": {
        "norad_id": 55974,
        "name": "TIANMU-1 04",
        "group": "weather",
        "lat": 55.43973342205374,
        "lon": -26.50278169193985,
        "alt_km": 435.63199553906725,
        "timestamp": "2025-12-06T18:50:09.814312+00:00",
        "meta_object_name": "TIANMU-1 04",
        "meta_object_id": "2023-039B",
        "meta_epoch": "2025-12-06T05:50:00.971520",
        "meta_mean_motion": 15.40973249,
        "meta_eccentricity": 0.00052502,
        "meta_inclination": 97.5039,
        "meta_ra_of_asc_node": 141.9087,
        "meta_arg_of_pericenter": 75.4522,
        "meta_mean_anomaly": 284.7306,
        "meta_ephemeris_type": 0,
        "meta_classification_type": "U",
        "meta_norad_cat_id": 55974,
        "meta_element_set_no": 999,
        "meta_rev_at_epoch": 15106,
        "meta_bstar": 0.00062401288,
        "meta_mean_motion_dot": 0.00025685,
        "meta_mean_motion_ddot": 0,
        "tle_line1": "1 55974U 23039B   25340.24306680  .00025685  00000+0  62401-3 0  9991",
        "tle_line2": "2 55974  97.5039 141.9087 0005250  75.4522 284.7306 15.40973249151069"
      },
      "geometry": {
        "type": "Point",
        "coordinates": [
          -26.50278169193985,
          55.43973342205374
        ]
      }
    },
    {
      "type": "Feature",
      "properties": {
        "norad_id": 55975,
        "name": "TIANMU-1 05",
        "group": "weather",
        "lat": 16.010816585556636,
        "lon": -34.873863508509466,
        "alt_km": 444.01003955952,
        "timestamp": "2025-12-06T18:50:09.814322+00:00",
        "meta_object_name": "TIANMU-1 05",
        "meta_object_id": "2023-039C",
        "meta_epoch": "2025-12-06T05:39:26.568288",
        "meta_mean_motion": 15.40598745,
        "meta_eccentricity": 0.00043731,
        "meta_inclination": 97.5086,
        "meta_ra_of_asc_node": 142.3932,
        "meta_arg_of_pericenter": 96.4199,
        "meta_mean_anomaly": 263.7545,
        "meta_ephemeris_type": 0,
        "meta_classification_type": "U",
        "meta_norad_cat_id": 55975,
        "meta_element_set_no": 999,
        "meta_rev_at_epoch": 15104,
        "meta_bstar": 0.00060859755,
        "meta_mean_motion_dot": 0.00024734,
        "meta_mean_motion_ddot": 0,
        "tle_line1": "1 55975U 23039C   25340.23572417  .00024734  00000+0  60860-3 0  9995",
        "tle_line2": "2 55975  97.5086 142.3932 0004373  96.4199 263.7545 15.40598745151048"
      },
      "geometry": {
        "type": "Point",
        "coordinates": [
          -34.873863508509466,
          16.010816585556636
        ]
      }
    },
    {
      "type": "Feature",
      "properties": {
        "norad_id": 55976,
        "name": "TIANMU-1 06",
        "group": "weather",
        "lat": 68.12619236775397,
        "lon": -17.399671820951095,
        "alt_km": 433.3800528992315,
        "timestamp": "2025-12-06T18:50:09.814332+00:00",
        "meta_object_name": "TIANMU-1 06",
        "meta_object_id": "2023-039D",
        "meta_epoch": "2025-12-06T05:53:27.909024",
        "meta_mean_motion": 15.41025713,
        "meta_eccentricity": 0.00047231,
        "meta_inclination": 97.5096,
        "meta_ra_of_asc_node": 142.863,
        "meta_arg_of_pericenter": 91.8721,
        "meta_mean_anomaly": 268.3066,
        "meta_ephemeris_type": 0,
        "meta_classification_type": "U",
        "meta_norad_cat_id": 55976,
        "meta_element_set_no": 999,
        "meta_rev_at_epoch": 15106,
        "meta_bstar": 0.00061477565,
        "meta_mean_motion_dot": 0.00025344,
        "meta_mean_motion_ddot": 0,
        "tle_line1": "1 55976U 23039D   25340.24546191  .00025344  00000+0  61478-3 0  9991",
        "tle_line2": "2 55976  97.5096 142.8630 0004723  91.8721 268.3066 15.41025713151061"
      },
      "geometry": {
        "type": "Point",
        "coordinates": [
          -17.399671820951095,
          68.12619236775397
        ]
      }
    },
    {
      "type": "Feature",
      "properties": {
        "norad_id": 56232,
        "name": "FENGYUN 3G",
        "group": "weather",
        "lat": -42.21596829696185,
        "lon": 127.80913985053955,
        "alt_km": 414.99199982851223,
        "timestamp": "2025-12-06T18:50:09.814342+00:00",
        "meta_object_name": "FENGYUN 3G",
        "meta_object_id": "2023-055A",
        "meta_epoch": "2025-12-06T05:26:57.789600",
        "meta_mean_motion": 15.53072733,
        "meta_eccentricity": 0.00092298,
        "meta_inclination": 49.9946,
        "meta_ra_of_asc_node": 261.0487,
        "meta_arg_of_pericenter": 117.34,
        "meta_mean_anomaly": 242.8508,
        "meta_ephemeris_type": 0,
        "meta_classification_type": "U",
        "meta_norad_cat_id": 56232,
        "meta_element_set_no": 999,
        "meta_rev_at_epoch": 15001,
        "meta_bstar": 0.0007573125,
        "meta_mean_motion_dot": 0.00048215,
        "meta_mean_motion_ddot": 0,
        "tle_line1": "1 56232U 23055A   25340.22705775  .00048215  00000+0  75731-3 0  9997",
        "tle_line2": "2 56232  49.9946 261.0487 0009229 117.3400 242.8508 15.53072733150019"
      },
      "geometry": {
        "type": "Point",
        "coordinates": [
          127.80913985053955,
          -42.21596829696185
        ]
      }
    },
    {
      "type": "Feature",
      "properties": {
        "norad_id": 57166,
        "name": "METEOR-M2 3",
        "group": "weather",
        "lat": -23.06966997553961,
        "lon": 38.14044273833979,
        "alt_km": 815.1171559037639,
        "timestamp": "2025-12-06T18:50:09.814359+00:00",
        "meta_object_name": "METEOR-M2 3",
        "meta_object_id": "2023-091A",
        "meta_epoch": "2025-12-06T07:08:28.167936",
        "meta_mean_motion": 14.24024967,
        "meta_eccentricity": 0.00042595,
        "meta_inclination": 98.6388,
        "meta_ra_of_asc_node": 33.9492,
        "meta_arg_of_pericenter": 26.431,
        "meta_mean_anomaly": 333.7086,
        "meta_ephemeris_type": 0,
        "meta_classification_type": "U",
        "meta_norad_cat_id": 57166,
        "meta_element_set_no": 999,
        "meta_rev_at_epoch": 12706,
        "meta_bstar": 5.4698596e-05,
        "meta_mean_motion_dot": 8.2e-07,
        "meta_mean_motion_ddot": 0,
        "tle_line1": "1 57166U 23091A   25340.29754824  .00000082  00000+0  54699-4 0  9991",
        "tle_line2": "2 57166  98.6388  33.9492 0004259  26.4310 333.7086 14.24024967127060"
      },
      "geometry": {
        "type": "Point",
        "coordinates": [
          38.14044273833979,
          -23.06966997553961
        ]
      }
    },
    {
      "type": "Feature",
      "properties": {
        "norad_id": 57399,
        "name": "TIANMU-1 07",
        "group": "weather",
        "lat": 78.73701726686892,
        "lon": -109.24305871309913,
        "alt_km": 470.7910398618342,
        "timestamp": "2025-12-06T18:50:09.814370+00:00",
        "meta_object_name": "TIANMU-1 07",
        "meta_object_id": "2023-101A",
        "meta_epoch": "2025-12-06T05:49:56.597088",
        "meta_mean_motion": 15.27931794,
        "meta_eccentricity": 0.0005614,
        "meta_inclination": 97.2882,
        "meta_ra_of_asc_node": 30.237,
        "meta_arg_of_pericenter": 97.868,
        "meta_mean_anomaly": 262.3197,
        "meta_ephemeris_type": 0,
        "meta_classification_type": "U",
        "meta_norad_cat_id": 57399,
        "meta_element_set_no": 999,
        "meta_rev_at_epoch": 13216,
        "meta_bstar": 0.00045784484,
        "meta_mean_motion_dot": 0.00012421,
        "meta_mean_motion_ddot": 0,
        "tle_line1": "1 57399U 23101A   25340.24301617  .00012421  00000+0  45784-3 0  9998",
        "tle_line2": "2 57399  97.2882  30.2370 0005614  97.8680 262.3197 15.27931794132161"
      },
      "geometry": {
        "type": "Point",
        "coordinates": [
          -109.24305871309913,
          78.73701726686892
        ]
      }
    }
  ]
}